[Satellite]
VERSION=1.1
NAME=SL-8 R/B
NICKNAME=SL-8 R/B
TLE1=1 20775U 90078B   18020.18243652  .00001150  00000-0  54768-4 0  9998
TLE2=2 20775  82.9268 230.1768 0585202  33.4109 330.2602 14.31633680379816
